{
 "generated_at": "2026-06-20T08:22:11Z",
 "sources": [
  {
   "name": "CelesTrak",
   "url": "https://celestrak.org/NORAD/elements/",
   "license": "frei verfügbar; Attribution. Ursprünglich USSPACECOM/Space-Track."
  },
  {
   "name": "GCAT (J. McDowell, planet4589.org)",
   "url": "https://planet4589.org/space/gcat/",
   "license": "CC-BY 4.0"
  }
 ],
 "satellites": [
  {
   "norad": 67371,
   "name": "UMBRA-12",
   "intl": "2026-004J",
   "group": "sar",
   "gcat": {
    "class": "B",
    "category": "IMG-R",
    "owner": "UMBRA",
    "state": "US"
   },
   "omm": {
    "OBJECT_NAME": "UMBRA-12",
    "OBJECT_ID": "2026-004J",
    "EPOCH": "2026-06-18T23:43:15.327840",
    "MEAN_MOTION": 14.89328767,
    "ECCENTRICITY": 0.00076696,
    "INCLINATION": 97.8013,
    "RA_OF_ASC_NODE": 168.7332,
    "ARG_OF_PERICENTER": 119.2402,
    "MEAN_ANOMALY": 240.9583,
    "EPHEMERIS_TYPE": 0,
    "CLASSIFICATION_TYPE": "U",
    "NORAD_CAT_ID": 67371,
    "ELEMENT_SET_NO": 999,
    "REV_AT_EPOCH": 2357,
    "BSTAR": 0.00034581375,
    "MEAN_MOTION_DOT": 0.00003226,
    "MEAN_MOTION_DDOT": 0
   }
  },
  {
   "norad": 39160,
   "name": "VNREDSAT 1",
   "intl": "2013-021B",
   "group": "resource",
   "gcat": {
    "class": "C",
    "category": "IMG",
    "owner": "VAST",
    "state": "VN"
   },
   "omm": {
    "OBJECT_NAME": "VNREDSAT 1",
    "OBJECT_ID": "2013-021B",
    "EPOCH": "2026-06-19T21:21:01.771776",
    "MEAN_MOTION": 14.64858372,
    "ECCENTRICITY": 0.0001705,
    "INCLINATION": 97.9073,
    "RA_OF_ASC_NODE": 224.2025,
    "ARG_OF_PERICENTER": 88.112,
    "MEAN_ANOMALY": 272.0279,
    "EPHEMERIS_TYPE": 0,
    "CLASSIFICATION_TYPE": "U",
    "NORAD_CAT_ID": 39160,
    "ELEMENT_SET_NO": 999,
    "REV_AT_EPOCH": 70068,
    "BSTAR": 0.000045591,
    "MEAN_MOTION_DOT": 0.00000198,
    "MEAN_MOTION_DDOT": 0
   }
  },
  {
   "norad": 32060,
   "name": "WORLDVIEW-1 (WV-1)",
   "intl": "2007-041A",
   "group": "resource",
   "gcat": {
    "class": "B",
    "category": "IMG",
    "owner": "DGLO",
    "state": "US"
   },
   "omm": {
    "OBJECT_NAME": "WORLDVIEW-1 (WV-1)",
    "OBJECT_ID": "2007-041A",
    "EPOCH": "2026-06-19T14:09:11.167776",
    "MEAN_MOTION": 15.24288482,
    "ECCENTRICITY": 0.00020137,
    "INCLINATION": 97.3882,
    "RA_OF_ASC_NODE": 290.2989,
    "ARG_OF_PERICENTER": 13.3798,
    "MEAN_ANOMALY": 346.7492,
    "EPHEMERIS_TYPE": 0,
    "CLASSIFICATION_TYPE": "U",
    "NORAD_CAT_ID": 32060,
    "ELEMENT_SET_NO": 999,
    "REV_AT_EPOCH": 4324,
    "BSTAR": 0.00019551998,
    "MEAN_MOTION_DOT": 0.00004705,
    "MEAN_MOTION_DDOT": 0
   }
  },
  {
   "norad": 35946,
   "name": "WORLDVIEW-2 (WV-2)",
   "intl": "2009-055A",
   "group": "resource",
   "gcat": {
    "class": "B",
    "category": "IMG",
    "owner": "DGLO",
    "state": "US"
   },
   "omm": {
    "OBJECT_NAME": "WORLDVIEW-2 (WV-2)",
    "OBJECT_ID": "2009-055A",
    "EPOCH": "2026-06-19T19:23:37.070880",
    "MEAN_MOTION": 14.37900104,
    "ECCENTRICITY": 0.0003873,
    "INCLINATION": 98.4737,
    "RA_OF_ASC_NODE": 244.2215,
    "ARG_OF_PERICENTER": 199.3281,
    "MEAN_ANOMALY": 160.7759,
    "EPHEMERIS_TYPE": 0,
    "CLASSIFICATION_TYPE": "U",
    "NORAD_CAT_ID": 35946,
    "ELEMENT_SET_NO": 999,
    "REV_AT_EPOCH": 87602,
    "BSTAR": 0.000041229,
    "MEAN_MOTION_DOT": 8.1e-7,
    "MEAN_MOTION_DDOT": 0
   }
  },
  {
   "norad": 40115,
   "name": "WORLDVIEW-3 (WV-3)",
   "intl": "2014-048A",
   "group": "resource",
   "gcat": {
    "class": "B",
    "category": "IMG",
    "owner": "DGLO",
    "state": "US"
   },
   "omm": {
    "OBJECT_NAME": "WORLDVIEW-3 (WV-3)",
    "OBJECT_ID": "2014-048A",
    "EPOCH": "2026-06-19T20:42:06.403104",
    "MEAN_MOTION": 14.85025626,
    "ECCENTRICITY": 0.000077,
    "INCLINATION": 97.8566,
    "RA_OF_ASC_NODE": 245.6586,
    "ARG_OF_PERICENTER": 22.0597,
    "MEAN_ANOMALY": 338.0651,
    "EPHEMERIS_TYPE": 0,
    "CLASSIFICATION_TYPE": "U",
    "NORAD_CAT_ID": 40115,
    "ELEMENT_SET_NO": 999,
    "REV_AT_EPOCH": 64230,
    "BSTAR": 0.000079315,
    "MEAN_MOTION_DOT": 0.00000624,
    "MEAN_MOTION_DDOT": 0
   }
  },
  {
   "norad": 36834,
   "name": "YAOGAN-10",
   "intl": "2010-038A",
   "group": "resource",
   "gcat": {
    "class": null,
    "category": null,
    "owner": null,
    "state": null
   },
   "omm": {
    "OBJECT_NAME": "YAOGAN-10",
    "OBJECT_ID": "2010-038A",
    "EPOCH": "2026-06-19T20:26:06.184608",
    "MEAN_MOTION": 14.85356735,
    "ECCENTRICITY": 0.0001761,
    "INCLINATION": 97.8972,
    "RA_OF_ASC_NODE": 194.2347,
    "ARG_OF_PERICENTER": 88.1299,
    "MEAN_ANOMALY": 14.5643,
    "EPHEMERIS_TYPE": 0,
    "CLASSIFICATION_TYPE": "U",
    "NORAD_CAT_ID": 36834,
    "ELEMENT_SET_NO": 999,
    "REV_AT_EPOCH": 85760,
    "BSTAR": 0.00017712,
    "MEAN_MOTION_DOT": 0.0000147,
    "MEAN_MOTION_DDOT": 0
   }
  },
  {
   "norad": 40143,
   "name": "YAOGAN-21",
   "intl": "2014-053A",
   "group": "resource",
   "gcat": {
    "class": "D",
    "category": "IMG",
    "owner": "ZZB",
    "state": "CN"
   },
   "omm": {
    "OBJECT_NAME": "YAOGAN-21",
    "OBJECT_ID": "2014-053A",
    "EPOCH": "2026-06-19T20:24:36.675936",
    "MEAN_MOTION": 15.26402515,
    "ECCENTRICITY": 0.000987,
    "INCLINATION": 97.1469,
    "RA_OF_ASC_NODE": 210.9717,
    "ARG_OF_PERICENTER": 86.3253,
    "MEAN_ANOMALY": 273.9115,
    "EPHEMERIS_TYPE": 0,
    "CLASSIFICATION_TYPE": "U",
    "NORAD_CAT_ID": 40143,
    "ELEMENT_SET_NO": 999,
    "REV_AT_EPOCH": 65536,
    "BSTAR": 0.00019053,
    "MEAN_MOTION_DOT": 0.00004895,
    "MEAN_MOTION_DDOT": 0
   }
  },
  {
   "norad": 40275,
   "name": "YAOGAN-22",
   "intl": "2014-063A",
   "group": "resource",
   "gcat": {
    "class": null,
    "category": null,
    "owner": null,
    "state": null
   },
   "omm": {
    "OBJECT_NAME": "YAOGAN-22",
    "OBJECT_ID": "2014-063A",
    "EPOCH": "2026-06-19T20:20:21.884064",
    "MEAN_MOTION": 13.15531021,
    "ECCENTRICITY": 0.0006406,
    "INCLINATION": 100.7728,
    "RA_OF_ASC_NODE": 322.1649,
    "ARG_OF_PERICENTER": 179.386,
    "MEAN_ANOMALY": 180.726,
    "EPHEMERIS_TYPE": 0,
    "CLASSIFICATION_TYPE": "U",
    "NORAD_CAT_ID": 40275,
    "ELEMENT_SET_NO": 999,
    "REV_AT_EPOCH": 56016,
    "BSTAR": 0.0000583,
    "MEAN_MOTION_DOT": -2.5e-7,
    "MEAN_MOTION_DDOT": 0
   }
  },
  {
   "norad": 40310,
   "name": "YAOGAN-24",
   "intl": "2014-072A",
   "group": "resource",
   "gcat": {
    "class": "D",
    "category": "IMG",
    "owner": "ZZB",
    "state": "CN"
   },
   "omm": {
    "OBJECT_NAME": "YAOGAN-24",
    "OBJECT_ID": "2014-072A",
    "EPOCH": "2026-06-19T20:40:01.606080",
    "MEAN_MOTION": 14.76224727,
    "ECCENTRICITY": 0.0012571,
    "INCLINATION": 98.1499,
    "RA_OF_ASC_NODE": 308.2217,
    "ARG_OF_PERICENTER": 254.0792,
    "MEAN_ANOMALY": 105.9032,
    "EPHEMERIS_TYPE": 0,
    "CLASSIFICATION_TYPE": "U",
    "NORAD_CAT_ID": 40310,
    "ELEMENT_SET_NO": 999,
    "REV_AT_EPOCH": 62411,
    "BSTAR": 0.000050074,
    "MEAN_MOTION_DOT": 0.00000294,
    "MEAN_MOTION_DDOT": 0
   }
  },
  {
   "norad": 40362,
   "name": "YAOGAN-26",
   "intl": "2014-088A",
   "group": "resource",
   "gcat": {
    "class": "D",
    "category": "IMG",
    "owner": "ZZB",
    "state": "CN"
   },
   "omm": {
    "OBJECT_NAME": "YAOGAN-26",
    "OBJECT_ID": "2014-088A",
    "EPOCH": "2026-06-19T20:23:25.485792",
    "MEAN_MOTION": 15.4743151,
    "ECCENTRICITY": 0.0005784,
    "INCLINATION": 97.0647,
    "RA_OF_ASC_NODE": 170.9958,
    "ARG_OF_PERICENTER": 62.0947,
    "MEAN_ANOMALY": 298.0889,
    "EPHEMERIS_TYPE": 0,
    "CLASSIFICATION_TYPE": "U",
    "NORAD_CAT_ID": 40362,
    "ELEMENT_SET_NO": 999,
    "REV_AT_EPOCH": 63811,
    "BSTAR": 0.00022156,
    "MEAN_MOTION_DOT": 0.00011274,
    "MEAN_MOTION_DDOT": 0
   }
  },
  {
   "norad": 40878,
   "name": "YAOGAN-27",
   "intl": "2015-040A",
   "group": "resource",
   "gcat": {
    "class": "D",
    "category": "IMG",
    "owner": "ZZB",
    "state": "CN"
   },
   "omm": {
    "OBJECT_NAME": "YAOGAN-27",
    "OBJECT_ID": "2015-040A",
    "EPOCH": "2026-06-19T22:00:59.143680",
    "MEAN_MOTION": 13.16070831,
    "ECCENTRICITY": 0.000775,
    "INCLINATION": 100.1157,
    "RA_OF_ASC_NODE": 157.1818,
    "ARG_OF_PERICENTER": 203.6186,
    "MEAN_ANOMALY": 156.4573,
    "EPHEMERIS_TYPE": 0,
    "CLASSIFICATION_TYPE": "U",
    "NORAD_CAT_ID": 40878,
    "ELEMENT_SET_NO": 999,
    "REV_AT_EPOCH": 51802,
    "BSTAR": 0.00012991,
    "MEAN_MOTION_DOT": 7e-8,
    "MEAN_MOTION_DDOT": 0
   }
  },
  {
   "norad": 41026,
   "name": "YAOGAN-28",
   "intl": "2015-064A",
   "group": "resource",
   "gcat": {
    "class": "D",
    "category": "IMG",
    "owner": "ZZB",
    "state": "CN"
   },
   "omm": {
    "OBJECT_NAME": "YAOGAN-28",
    "OBJECT_ID": "2015-064A",
    "EPOCH": "2026-06-19T21:03:53.658432",
    "MEAN_MOTION": 15.27448646,
    "ECCENTRICITY": 0.0010888,
    "INCLINATION": 97.3083,
    "RA_OF_ASC_NODE": 309.0843,
    "ARG_OF_PERICENTER": 173.8478,
    "MEAN_ANOMALY": 186.2897,
    "EPHEMERIS_TYPE": 0,
    "CLASSIFICATION_TYPE": "U",
    "NORAD_CAT_ID": 41026,
    "ELEMENT_SET_NO": 999,
    "REV_AT_EPOCH": 59109,
    "BSTAR": 0.00020249,
    "MEAN_MOTION_DOT": 0.00005375,
    "MEAN_MOTION_DDOT": 0
   }
  },
  {
   "norad": 41038,
   "name": "YAOGAN-29",
   "intl": "2015-069A",
   "group": "resource",
   "gcat": {
    "class": "D",
    "category": "IMG-R",
    "owner": "ZZB",
    "state": "CN"
   },
   "omm": {
    "OBJECT_NAME": "YAOGAN-29",
    "OBJECT_ID": "2015-069A",
    "EPOCH": "2026-06-19T21:02:12.522912",
    "MEAN_MOTION": 14.83084768,
    "ECCENTRICITY": 0.0002495,
    "INCLINATION": 98.0022,
    "RA_OF_ASC_NODE": 199.5139,
    "ARG_OF_PERICENTER": 49.7958,
    "MEAN_ANOMALY": 310.3473,
    "EPHEMERIS_TYPE": 0,
    "CLASSIFICATION_TYPE": "U",
    "NORAD_CAT_ID": 41038,
    "ELEMENT_SET_NO": 999,
    "REV_AT_EPOCH": 57102,
    "BSTAR": -0.000039493,
    "MEAN_MOTION_DOT": -0.00000376,
    "MEAN_MOTION_DDOT": 0
   }
  }
 ]
}
